stk.v.11.0
WrittenBy    formation-sat-exporter

BEGIN Ephemeris
    NumberOfEphemerisPoints 181
    ScenarioEpoch 21 Mar 2026 07:38:40.000000000 UTCG
    InterpolationMethod     Lagrange
    InterpolationOrder      7
    CentralBody             Earth
    CoordinateSystem        TEME
    DistanceUnit            Kilometers

    BEGIN EphemerisTimePosVel
        62.000000000  5.57815643340483e+03 -1.41925017684010e+03  3.87594869001575e+03 -4.35083970263523e+00 -1.59026064954522e-01  6.20338158173740e+00
        63.000000000  5.57380226493135e+03 -1.41940835571411e+03  3.88214976313196e+03 -4.35749638544783e+00 -1.57331649663374e-01  6.19876341476543e+00
        64.000000000  5.56944144235264e+03 -1.41956484007295e+03  3.88834621437490e+03 -4.36414791178052e+00 -1.55637034940248e-01  6.19413783614314e+00
        65.000000000  5.56507397082934e+03 -1.41971962971818e+03  3.89453803633539e+03 -4.37079427365942e+00 -1.53942222795915e-01  6.18950485124948e+00
        66.000000000  5.56069985552963e+03 -1.41987272445340e+03  3.90072522161020e+03 -4.37743546311705e+00 -1.52247215241292e-01  6.18486446547187e+00
        67.000000000  5.55631910163000e+03 -1.42002412408420e+03  3.90690776280103e+03 -4.38407147219114e+00 -1.50552014287765e-01  6.18021668420701e+00
        68.000000000  5.55193171431486e+03 -1.42017382841818e+03  3.91308565251502e+03 -4.39070229292520e+00 -1.48856621947018e-01  6.17556151286051e+00
        69.000000000  5.54753769877632e+03 -1.42032183726496e+03  3.91925888336509e+03 -4.39732791736895e+00 -1.47161040230936e-01  6.17089895684661e+00
        70.000000000  5.54313706021490e+03 -1.42046815043619e+03  3.92542744796892e+03 -4.40394833757709e+00 -1.45465271151904e-01  6.16622902158896e+00
        71.000000000  5.53872980383861e+03 -1.42061276774549e+03  3.93159133895026e+03 -4.41056354561083e+00 -1.43769316722454e-01  6.16155171251962e+00
        72.000000000  5.53431593486371e+03 -1.42075568900852e+03  3.93775054893784e+03 -4.41717353353669e+00 -1.42073178955537e-01  6.15686703507990e+00
        73.000000000  5.52989545851435e+03 -1.42089691404296e+03  3.94390507056593e+03 -4.42377829342705e+00 -1.40376859864384e-01  6.15217499471997e+00
        74.000000000  5.52546838002226e+03 -1.42103644266848e+03  3.95005489647467e+03 -4.43037781736057e+00 -1.38680361462420e-01  6.14747559689852e+00
        75.000000000  5.52103470462759e+03 -1.42117427470679e+03  3.95620001930905e+03 -4.43697209742106e+00 -1.36983685763530e-01  6.14276884708362e+00
        76.000000000  5.51659443757802e+03 -1.42131040998159e+03  3.96234043172000e+03 -4.44356112569864e+00 -1.35286834781782e-01  6.13805475075189e+00
        77.000000000  5.51214758412937e+03 -1.42144484831860e+03  3.96847612636361e+03 -4.45014489428895e+00 -1.33589810531614e-01  6.13333331338902e+00
        78.000000000  5.50769414954527e+03 -1.42157758954557e+03  3.97460709590164e+03 -4.45672339529364e+00 -1.31892615027725e-01  6.12860454048947e+00
        79.000000000  5.50323413909724e+03 -1.42170863349225e+03  3.98073333300129e+03 -4.46329662082018e+00 -1.30195250285106e-01  6.12386843755661e+00
        80.000000000  5.49876755806470e+03 -1.42183797999040e+03  3.98685483033531e+03 -4.46986456298192e+00 -1.28497718319034e-01  6.11912501010261e+00
        81.000000000  5.49429441173497e+03 -1.42196562887382e+03  3.99297158058190e+03 -4.47642721389805e+00 -1.26800021145090e-01  6.11437426364857e+00
        82.000000000  5.48981470540330e+03 -1.42209157997830e+03  3.99908357642475e+03 -4.48298456569356e+00 -1.25102160779153e-01  6.10961620372448e+00
        83.000000000  5.48532844437264e+03 -1.42221583314165e+03  4.00519081055329e+03 -4.48953661049960e+00 -1.23404139237323e-01  6.10485083586898e+00
        84.000000000  5.48083563395393e+03 -1.42233838820372e+03  4.01129327566234e+03 -4.49608334045303e+00 -1.21705958536018e-01  6.10007816562969e+00
        85.000000000  5.47633627946599e+03 -1.42245924500634e+03  4.01739096445226e+03 -4.50262474769663e+00 -1.20007620691951e-01  6.09529819856307e+00
        86.000000000  5.47183038623543e+03 -1.42257840339339e+03  4.02348386962900e+03 -4.50916082437912e+00 -1.18309127722085e-01  6.09051094023438e+00
        87.000000000  5.46731795959671e+03 -1.42269586321075e+03  4.02957198390414e+03 -4.51569156265521e+00 -1.16610481643654e-01  6.08571639621767e+00
        88.000000000  5.46279900489220e+03 -1.42281162430632e+03  4.03565529999473e+03 -4.52221695468548e+00 -1.14911684474189e-01  6.08091457209589e+00
        89.000000000  5.45827352747203e+03 -1.42292568653002e+03  4.04173381062350e+03 -4.52873699263650e+00 -1.13212738231466e-01  6.07610547346071e+00
        90.000000000  5.45374153269422e+03 -1.42303804973377e+03  4.04780750851870e+03 -4.53525166868076e+00 -1.11513644933546e-01  6.07128910591271e+00
        91.000000000  5.44920302592456e+03 -1.42314871377154e+03  4.05387638641425e+03 -4.54176097499680e+00 -1.09814406598728e-01  6.06646547506118e+00
        92.000000000  5.44465801253667e+03 -1.42325767849930e+03  4.05994043704968e+03 -4.54826490376912e+00 -1.08115025245586e-01  6.06163458652421e+00
        93.000000000  5.44010649791212e+03 -1.42336494377503e+03  4.06599965316997e+03 -4.55476344718802e+00 -1.06415502893000e-01  6.05679644592886e+00
        94.000000000  5.43554848743978e+03 -1.42347050945877e+03  4.07205402752637e+03 -4.56125659745050e+00 -1.04715841559921e-01  6.05195105891042e+00
        95.000000000  5.43098398651728e+03 -1.42357437541251e+03  4.07810355287454e+03 -4.56774434675826e+00 -1.03016043265910e-01  6.04709843111398e+00
        96.000000000  5.42641300054926e+03 -1.42367654150032e+03  4.08414822197679e+03 -4.57422668732008e+00 -1.01316110030493e-01  6.04223856819257e+00
        97.000000000  5.42183553494820e+03 -1.42377700758827e+03  4.09018802760104e+03 -4.58070361135071e+00 -9.96160438734616e-02  6.03737147580807e+00
        98.000000000  5.41725159513453e+03 -1.42387577354444e+03  4.09622296252064e+03 -4.58717511107071e+00 -9.79158468149237e-02  6.03249715963129e+00
        99.000000000  5.41266118653667e+03 -1.42397283923894e+03  4.10225301951437e+03 -4.59364117870643e+00 -9.62155208752925e-02  6.02761562534198e+00
        100.000000000  5.40806431459053e+03 -1.42406820454390e+03  4.10827819136702e+03 -4.60010180649060e+00 -9.45150680751548e-02  6.02272687862842e+00
        101.000000000  5.40346098473975e+03 -1.42416186933347e+03  4.11429847086913e+03 -4.60655698666211e+00 -9.28144904352949e-02  6.01783092518756e+00
        102.000000000  5.39885120243573e+03 -1.42425383348383e+03  4.12031385081697e+03 -4.61300671146594e+00 -9.11137899767455e-02  6.01292777072509e+00
        103.000000000  5.39423497313782e+03 -1.42434409687316e+03  4.12632432401220e+03 -4.61945097315285e+00 -8.94129687208592e-02  6.00801742095568e+00
        104.000000000  5.38961230231291e+03 -1.42443265938168e+03  4.13232988326253e+03 -4.62588976397999e+00 -8.77120286891371e-02  6.00309988160248e+00
        105.000000000  5.38498319543592e+03 -1.42451952089162e+03  4.13833052138096e+03 -4.63232307621023e+00 -8.60109719034236e-02  5.99817515839770e+00
        106.000000000  5.38034765798920e+03 -1.42460468128725e+03  4.14432623118670e+03 -4.63875090211299e+00 -8.43098003856693e-02  5.99324325708193e+00
        107.000000000  5.37570569546305e+03 -1.42468814045483e+03  4.15031700550434e+03 -4.64517323396350e+00 -8.26085161581526e-02  5.98830418340471e+00
        108.000000000  5.37105731335523e+03 -1.42476989828267e+03  4.15630283716459e+03 -4.65159006404346e+00 -8.09071212432772e-02  5.98335794312404e+00
        109.000000000  5.36640251717151e+03 -1.42484995466110e+03  4.16228371900358e+03 -4.65800138464037e+00 -7.92056176637560e-02  5.97840454200690e+00
        110.000000000  5.36174131242502e+03 -1.42492830948246e+03  4.16825964386357e+03 -4.66440718804830e+00 -7.75040074424247e-02  5.97344398582864e+00
        111.000000000  5.35707370463698e+03 -1.42500496264112e+03  4.17423060459221e+03 -4.67080746656701e+00 -7.58022926024573e-02  5.96847628037366e+00
        112.000000000  5.35239969933606e+03 -1.42507991403347e+03  4.18019659404319e+03 -4.67720221250277e+00 -7.41004751671608e-02  5.96350143143483e+00
        113.000000000  5.34771930205879e+03 -1.42515316355793e+03  4.18615760507578e+03 -4.68359141816776e+00 -7.23985571601191e-02  5.95851944481388e+00
        114.000000000  5.34303251834914e+03 -1.42522471111494e+03  4.19211363055540e+03 -4.68997507588075e+00 -7.06965406050385e-02  5.95353032632092e+00
        115.000000000  5.33833935375890e+03 -1.42529455660697e+03  4.19806466335308e+03 -4.69635317796648e+00 -6.89944275258778e-02  5.94853408177493e+00
        116.000000000  5.33363981384760e+03 -1.42536269993850e+03  4.20401069634559e+03 -4.70272571675582e+00 -6.72922199468296e-02  5.94353071700358e+00
        117.000000000  5.32893390418236e+03 -1.42542914101604e+03  4.20995172241564e+03 -4.70909268458599e+00 -6.55899198922755e-02  5.93852023784316e+00
        118.000000000  5.32422163033800e+03 -1.42549387974813e+03  4.21588773445172e+03 -4.71545407380037e+00 -6.38875293867997e-02  5.93350265013864e+00
        119.000000000  5.31950299789691e+03 -1.42555691604534e+03  4.22181872534827e+03 -4.72180987674870e+00 -6.21850504551556e-02  5.92847795974354e+00
        120.000000000  5.31477801244911e+03 -1.42561824982025e+03  4.22774468800564e+03 -4.72816008578702e+00 -6.04824851222920e-02  5.92344617252001e+00
        121.000000000  5.31004667959242e+03 -1.42567788098746e+03  4.23366561532979e+03 -4.73450469327737e+00 -5.87798354134151e-02  5.91840729433902e+00
        122.000000000  5.30530900493225e+03 -1.42573580946362e+03  4.23958150023266e+03 -4.74084369158817e+00 -5.70771033538992e-02  5.91336133108011e+00
        123.000000000  5.30056499408153e+03 -1.42579203516740e+03  4.24549233563220e+03 -4.74717707309426e+00 -5.53742909692705e-02  5.90830828863133e+00
    END EphemerisTimePosVel
END Ephemeris
